{
  "norad_id": 62219,
  "name": "STARLINK-11490 [DTC]",
  "history": [
    {
      "epoch": "2026-03-28T22:29:48.419808Z",
      "apogee_km": 360.0287784897646,
      "perigee_km": 358.8451214982306,
      "latitude_deg": 1.5288227899939405e-05,
      "longitude_deg": -157.35208381007533,
      "height_km": 360.85145586696854,
      "semi_major_axis_km": 6737.573949993997,
      "eccentricity": 8.784e-05,
      "inclination_deg": 53.1579,
      "raan_deg": 6.4503,
      "arg_perigee_deg": 147.6961,
      "mean_anomaly_deg": 212.4111,
      "mean_motion_rev_day": 15.69811277
    },
    {
      "epoch": "2026-03-29T01:33:10.663200Z",
      "apogee_km": 360.316696804397,
      "perigee_km": 359.0728930550531,
      "latitude_deg": 1.2887296171158501e-05,
      "longitude_deg": 156.0517208093383,
      "height_km": 360.36139071253854,
      "semi_major_axis_km": 6737.831794929725,
      "eccentricity": 9.23e-05,
      "inclination_deg": 53.1583,
      "raan_deg": 5.8223,
      "arg_perigee_deg": 66.5766,
      "mean_anomaly_deg": 293.5349,
      "mean_motion_rev_day": 15.69721167
    },
    {
      "epoch": "2026-03-30T00:28:26.282496Z",
      "apogee_km": 360.57059535469034,
      "perigee_km": 359.1448356728879,
      "latitude_deg": -1.8915156129752326e-05,
      "longitude_deg": 166.5874849723469,
      "height_km": 360.4307201759717,
      "semi_major_axis_km": 6737.994715513789,
      "eccentricity": 0.0001058,
      "inclination_deg": 53.1582,
      "raan_deg": 1.1145,
      "arg_perigee_deg": 61.4525,
      "mean_anomaly_deg": 298.6599,
      "mean_motion_rev_day": 15.69664235
    },
    {
      "epoch": "2026-03-30T06:35:10.675104Z",
      "apogee_km": 360.23207883762916,
      "perigee_km": 358.77957779670123,
      "latitude_deg": -2.5204797814724503e-05,
      "longitude_deg": 73.39608685470218,
      "height_km": 360.0727283389406,
      "semi_major_axis_km": 6737.642828317165,
      "eccentricity": 0.00010779,
      "inclination_deg": 53.158,
      "raan_deg": 359.8591,
      "arg_perigee_deg": 61.4778,
      "mean_anomaly_deg": 298.6348,
      "mean_motion_rev_day": 15.69787205
    },
    {
      "epoch": "2026-03-30T11:10:13.990944Z",
      "apogee_km": 360.5026706130211,
      "perigee_km": 358.6590962457567,
      "latitude_deg": 1.435286520867187e-05,
      "longitude_deg": 3.502631908824399,
      "height_km": 360.0576109085907,
      "semi_major_axis_km": 6737.717883429388,
      "eccentricity": 0.00013681,
      "inclination_deg": 53.1581,
      "raan_deg": 358.9177,
      "arg_perigee_deg": 61.7283,
      "mean_anomaly_deg": 298.3873,
      "mean_motion_rev_day": 15.69760975
    },
    {
      "epoch": "2026-03-30T21:52:00.825024Z",
      "apogee_km": 360.52493729068465,
      "perigee_km": 358.4287308746234,
      "latitude_deg": -4.541591663456929e-05,
      "longitude_deg": -159.57883729532597,
      "height_km": 359.35451794239816,
      "semi_major_axis_km": 6737.613834082654,
      "eccentricity": 0.00015556,
      "inclination_deg": 53.158,
      "raan_deg": 356.7207,
      "arg_perigee_deg": 8.37,
      "mean_anomaly_deg": 351.7343,
      "mean_motion_rev_day": 15.69797338
    },
    {
      "epoch": "2026-03-31T05:30:25.915104Z",
      "apogee_km": 360.61706753685667,
      "perigee_km": 358.44349607174536,
      "latitude_deg": -6.300647897378081e-06,
      "longitude_deg": 83.9330741852001,
      "height_km": 359.51344136523835,
      "semi_major_axis_km": 6737.667281804301,
      "eccentricity": 0.0001613,
      "inclination_deg": 53.1577,
      "raan_deg": 355.1509,
      "arg_perigee_deg": 31.093,
      "mean_anomaly_deg": 329.0183,
      "mean_motion_rev_day": 15.69778659
    },
    {
      "epoch": "2026-04-01T21:14:12.907968Z",
      "apogee_km": 360.3374552503192,
      "perigee_km": 358.574900874939,
      "latitude_deg": -4.110828501751203e-06,
      "longitude_deg": -161.80526724294654,
      "height_km": 360.7862795441958,
      "semi_major_axis_km": 6737.593178062629,
      "eccentricity": 0.0001308,
      "inclination_deg": 53.1572,
      "raan_deg": 346.99,
      "arg_perigee_deg": 118.2253,
      "mean_anomaly_deg": 241.8897,
      "mean_motion_rev_day": 15.69804557
    },
    {
      "epoch": "2026-04-02T17:06:05.533920Z",
      "apogee_km": 360.00081818074614,
      "perigee_km": 358.9335816754774,
      "latitude_deg": -1.687488793810691e-05,
      "longitude_deg": -104.66976179941314,
      "height_km": 360.5462028663764,
      "semi_major_axis_km": 6737.6041999281115,
      "eccentricity": 7.92e-05,
      "inclination_deg": 53.1568,
      "raan_deg": 342.9106,
      "arg_perigee_deg": 108.0344,
      "mean_anomaly_deg": 252.076,
      "mean_motion_rev_day": 15.69800705
    },
    {
      "epoch": "2026-04-02T23:12:49.196448Z",
      "apogee_km": 359.9058965328568,
      "perigee_km": 358.88233080606915,
      "latitude_deg": 5.624342935227547e-05,
      "longitude_deg": 162.14204945951343,
      "height_km": 360.2477710135974,
      "semi_major_axis_km": 6737.531113669463,
      "eccentricity": 7.596e-05,
      "inclination_deg": 53.1566,
      "raan_deg": 341.6553,
      "arg_perigee_deg": 83.2533,
      "mean_anomaly_deg": 276.8572,
      "mean_motion_rev_day": 15.69826248
    },
    {
      "epoch": "2026-04-03T20:36:25.045344Z",
      "apogee_km": 360.18364017226213,
      "perigee_km": 359.30097798277257,
      "latitude_deg": 3.0683026589357876e-05,
      "longitude_deg": -164.03013128390634,
      "height_km": 360.4674400450015,
      "semi_major_axis_km": 6737.879309077517,
      "eccentricity": 6.55e-05,
      "inclination_deg": 53.1574,
      "raan_deg": 337.2611,
      "arg_perigee_deg": 64.6569,
      "mean_anomaly_deg": 295.4517,
      "mean_motion_rev_day": 15.69704563
    },
    {
      "epoch": "2026-04-04T21:03:21.164256Z",
      "apogee_km": 361.91489030284447,
      "perigee_km": 358.0162241632297,
      "latitude_deg": 3.7490302682965425e-05,
      "longitude_deg": -176.79033739961173,
      "height_km": 358.9361996583425,
      "semi_major_axis_km": 6738.102557233037,
      "eccentricity": 0.0002893,
      "inclination_deg": 53.1556,
      "raan_deg": 332.2388,
      "arg_perigee_deg": 4.3697,
      "mean_anomaly_deg": 355.7346,
      "mean_motion_rev_day": 15.69626552
    },
    {
      "epoch": "2026-04-05T01:38:24.955296Z",
      "apogee_km": 360.5568218408671,
      "perigee_km": 359.07555021245025,
      "latitude_deg": -8.136998712563563e-06,
      "longitude_deg": 113.31495830523455,
      "height_km": 360.15050323627486,
      "semi_major_axis_km": 6737.953186026658,
      "eccentricity": 0.00010992,
      "inclination_deg": 53.156,
      "raan_deg": 331.2982,
      "arg_perigee_deg": 38.5219,
      "mean_anomaly_deg": 321.5877,
      "mean_motion_rev_day": 15.69678747
    },
    {
      "epoch": "2026-04-05T19:58:37.404768Z",
      "apogee_km": 359.25803522593105,
      "perigee_km": 358.8618880445865,
      "latitude_deg": -4.336033623640469e-05,
      "longitude_deg": -166.25770737583073,
      "height_km": 360.1727673285124,
      "semi_major_axis_km": 6737.196961635258,
      "eccentricity": 2.94e-05,
      "inclination_deg": 53.1565,
      "raan_deg": 327.5305,
      "arg_perigee_deg": 179.0437,
      "mean_anomaly_deg": 181.0581,
      "mean_motion_rev_day": 15.6994304
    },
    {
      "epoch": "2026-04-05T21:30:18.458208Z",
      "apogee_km": 360.4176404279451,
      "perigee_km": 358.7768673824339,
      "latitude_deg": 6.874744402292955e-05,
      "longitude_deg": 170.44456441735892,
      "height_km": 359.8327924206316,
      "semi_major_axis_km": 6737.734253905189,
      "eccentricity": 0.00012176,
      "inclination_deg": 53.1565,
      "raan_deg": 327.2165,
      "arg_perigee_deg": 34.2274,
      "mean_anomaly_deg": 325.8823,
      "mean_motion_rev_day": 15.69755254
    },
    {
      "epoch": "2026-04-07T01:00:36.252000Z",
      "apogee_km": 360.2102032880339,
      "perigee_km": 358.87412151012904,
      "latitude_deg": -1.6149259955437174e-06,
      "longitude_deg": 111.09238054191034,
      "height_km": 360.1009514744508,
      "semi_major_axis_km": 6737.679162399081,
      "eccentricity": 9.915e-05,
      "inclination_deg": 53.1562,
      "raan_deg": 321.5681,
      "arg_perigee_deg": 57.9167,
      "mean_anomaly_deg": 302.1947,
      "mean_motion_rev_day": 15.69774507
    },
    {
      "epoch": "2026-04-07T20:52:29.723808Z",
      "apogee_km": 360.46072387163076,
      "perigee_km": 359.0592412992528,
      "latitude_deg": 4.071920844999201e-06,
      "longitude_deg": 168.22276261676333,
      "height_km": 360.24472661171905,
      "semi_major_axis_km": 6737.896982585441,
      "eccentricity": 0.000104,
      "inclination_deg": 53.1572,
      "raan_deg": 317.4871,
      "arg_perigee_deg": 52.2527,
      "mean_anomaly_deg": 307.8585,
      "mean_motion_rev_day": 15.69698387
    },
    {
      "epoch": "2026-04-08T07:34:17.053824Z",
      "apogee_km": 359.93265566900754,
      "perigee_km": 359.20943008768427,
      "latitude_deg": -9.025271213494104e-06,
      "longitude_deg": 5.139754255631922,
      "height_km": 360.1646148906058,
      "semi_major_axis_km": 6737.708042878346,
      "eccentricity": 5.367e-05,
      "inclination_deg": 53.1577,
      "raan_deg": 315.2906,
      "arg_perigee_deg": 27.4289,
      "mean_anomaly_deg": 332.6757,
      "mean_motion_rev_day": 15.69764414
    },
    {
      "epoch": "2026-04-09T20:14:41.786016Z",
      "apogee_km": 360.25641910706145,
      "perigee_km": 359.22687125007906,
      "latitude_deg": -4.650400935036737e-05,
      "longitude_deg": 165.99724232984198,
      "height_km": 360.5269510921964,
      "semi_major_axis_km": 6737.87864517857,
      "eccentricity": 7.64e-05,
      "inclination_deg": 53.1577,
      "raan_deg": 307.7573,
      "arg_perigee_deg": 75.5351,
      "mean_anomaly_deg": 284.5751,
      "mean_motion_rev_day": 15.69704795
    }
  ]
}